ONEWEB-0620             
1 55161U 23004X   24327.52280906  .00000139  00000+0  35596-3 0  9990
2 55161  87.8880 134.9992 0001149 107.1458 252.9796 13.11417724 90906
ONEWEB-0621             
1 55162U 23004Y   24327.93141548  .00000516  00000+0  14208-2 0  9999
2 55162  87.8876 134.8826 0001697  94.4164 265.7158 13.11418062 90963
ONEWEB-0622             
1 55163U 23004Z   24328.39428966  .00000414  00000+0  11310-2 0  9991
2 55163  87.8880 134.8091 0001592 126.6826 233.4448 13.11415723 90998
ONEWEB-0623             
1 55164U 23004AA  24328.35785294  .00000020  00000+0  19378-4 0  9995
2 55164  87.9083 119.6089 0001997 117.6556 242.4779 13.17650325 92413
ONEWEB-0624             
1 55165U 23004AB  24327.41605539 -.00000431  00000+0 -12340-2 0  9993
2 55165  87.8866 104.5141 0001586 103.6706 256.4599 13.12441975 93050
ONEWEB-0625             
1 55166U 23004AC  24327.51241395  .00000017  00000+0  10139-4 0  9995
2 55166  87.9080 119.7755 0001621  90.2307 269.9010 13.17649434 92294
ONEWEB-0626             
1 55167U 23004AD  24327.95792225  .00000141  00000+0  32926-3 0  9992
2 55167  87.9077 119.6865 0001021  97.7827 262.3420 13.17649926 92350
ONEWEB-0627             
1 55168U 23004AE  24328.40172807  .00000091  00000+0  20144-3 0  9995
2 55168  87.9073 119.5996 0001692 115.8559 244.2747 13.17649580 92413
